IRIDIUM 144             
1 43249U 18030A   24232.87146936  .00000067  00000+0  16870-4 0  9999
2 43249  86.3987 208.8541 0001925  86.7999 273.3417 14.34219501334656
IRIDIUM 149             
1 43250U 18030B   24232.52896031  .00000022  00000+0  65029-6 0  9994
2 43250  86.3986 208.9715 0002004  91.7745 268.3680 14.34216171334606
IRIDIUM 157             
1 43251U 18030C   24233.45498904  .00000254  00000+0  83750-4 0  9991
2 43251  86.3989 208.6236 0002569  92.5239 267.6251 14.34220704334713
IRIDIUM 140             
1 43252U 18030D   24233.33447886  .00000924  00000+0  32276-3 0  9992
2 43252  86.3988 208.6884 0002174  78.4878 281.6562 14.34223626334757
IRIDIUM 145             
1 43253U 18030E   24233.18225229  .00000013  00000+0 -24963-5 0  9997
2 43253  86.3990 208.7249 0001665  90.5271 269.6116 14.34216893334662
IRIDIUM 146             
1 43254U 18030F   24233.23300465  .00000014  00000+0 -21745-5 0  9996
2 43254  86.3987 208.7187 0002083  86.9099 273.2335 14.34219138334683
IRIDIUM 148             
1 43255U 18030G   24233.48035285 -.00000114  00000+0 -47745-4 0  9998
2 43255  86.3992 208.6484 0002085  92.0896 268.0539 14.34214184334767
IRIDIUM 142             
1 43256U 18030H   24233.44864629  .00000048  00000+0  10153-4 0  9994
2 43256  86.3985 208.5748 0001947  90.7887 269.3532 14.34219845334714
